[{"CCSDS_OMM_VERS":"2.0","COMMENT":"GENERATED VIA SPACE-TRACK.ORG API","CREATION_DATE":"2021-03-17T22:26:12","ORIGINATOR":"18 SPCS","OBJECT_NAME":"ONEWEB-0027","OBJECT_ID":"2020-020J","CENTER_NAME":"EARTH","REF_FRAME":"TEME","TIME_SYSTEM":"UTC","MEAN_ELEMENT_THEORY":"SGP4","EPOCH":"2021-03-17T12:50:42.202752","MEAN_MOTION":"13.78983947","ECCENTRICITY":"0.00288200","INCLINATION":"87.9157","RA_OF_ASC_NODE":"27.5097","ARG_OF_PERICENTER":"88.2910","MEAN_ANOMALY":"272.1557","EPHEMERIS_TYPE":"0","CLASSIFICATION_TYPE":"U","NORAD_CAT_ID":"45432","ELEMENT_SET_NO":"999","REV_AT_EPOCH":"5367","BSTAR":"-0.29864000000000","MEAN_MOTION_DOT":"-0.00294370","MEAN_MOTION_DDOT":"0.0000000000000","SEMIMAJOR_AXIS":"7345.630","PERIOD":"104.425","APOAPSIS":"988.665","PERIAPSIS":"946.325","OBJECT_TYPE":"PAYLOAD","RCS_SIZE":"MEDIUM","COUNTRY_CODE":"UK","LAUNCH_DATE":"2020-03-21","SITE":"TTMTR","DECAY_DATE":null,"FILE":"2984841","GP_ID":"173576429","TLE_LINE0":"0 ONEWEB-0027","TLE_LINE1":"1 45432U 20020J   21076.53521068 -.00294370  00000-0 -29864+0 0  9993","TLE_LINE2":"2 45432  87.9157  27.5097 0028820  88.2910 272.1557 13.78983947 53674"},{"CCSDS_OMM_VERS":"2.0","COMMENT":"GENERATED VIA SPACE-TRACK.ORG API","CREATION_DATE":"2021-03-18T17:47:02","ORIGINATOR":"18 SPCS","OBJECT_NAME":"ONEWEB-0027","OBJECT_ID":"2020-020J","CENTER_NAME":"EARTH","REF_FRAME":"TEME","TIME_SYSTEM":"UTC","MEAN_ELEMENT_THEORY":"SGP4","EPOCH":"2021-03-18T11:32:10.237920","MEAN_MOTION":"13.76925463","ECCENTRICITY":"0.00282950","INCLINATION":"87.9159","RA_OF_ASC_NODE":"27.3020","ARG_OF_PERICENTER":"81.8312","MEAN_ANOMALY":"278.6061","EPHEMERIS_TYPE":"0","CLASSIFICATION_TYPE":"U","NORAD_CAT_ID":"45432","ELEMENT_SET_NO":"999","REV_AT_EPOCH":"5380","BSTAR":"-0.42131000000000","MEAN_MOTION_DOT":"-0.00398922","MEAN_MOTION_DDOT":"0.0000000000000","SEMIMAJOR_AXIS":"7352.949","PERIOD":"104.581","APOAPSIS":"995.619","PERIAPSIS":"954.009","OBJECT_TYPE":"PAYLOAD","RCS_SIZE":"MEDIUM","COUNTRY_CODE":"UK","LAUNCH_DATE":"2020-03-21","SITE":"TTMTR","DECAY_DATE":null,"FILE":"2985639","GP_ID":"173638261","TLE_LINE0":"0 ONEWEB-0027","TLE_LINE1":"1 45432U 20020J   21077.48067405 -.00398922  00000-0 -42131+0 0  9998","TLE_LINE2":"2 45432  87.9159  27.3020 0028295  81.8312 278.6061 13.76925463 53804"},{"CCSDS_OMM_VERS":"2.0","COMMENT":"GENERATED VIA SPACE-TRACK.ORG API","CREATION_DATE":"2021-03-18T22:36:12","ORIGINATOR":"18 SPCS","OBJECT_NAME":"ONEWEB-0027","OBJECT_ID":"2020-020J","CENTER_NAME":"EARTH","REF_FRAME":"TEME","TIME_SYSTEM":"UTC","MEAN_ELEMENT_THEORY":"SGP4","EPOCH":"2021-03-18T11:32:10.237920","MEAN_MOTION":"13.76925463","ECCENTRICITY":"0.00282950","INCLINATION":"87.9159","RA_OF_ASC_NODE":"27.3020","ARG_OF_PERICENTER":"81.8312","MEAN_ANOMALY":"278.6061","EPHEMERIS_TYPE":"0","CLASSIFICATION_TYPE":"U","NORAD_CAT_ID":"45432","ELEMENT_SET_NO":"999","REV_AT_EPOCH":"5380","BSTAR":"-0.42131000000000","MEAN_MOTION_DOT":"-0.00398922","MEAN_MOTION_DDOT":"0.0000000000000","SEMIMAJOR_AXIS":"7352.949","PERIOD":"104.581","APOAPSIS":"995.619","PERIAPSIS":"954.009","OBJECT_TYPE":"PAYLOAD","RCS_SIZE":"MEDIUM","COUNTRY_CODE":"UK","LAUNCH_DATE":"2020-03-21","SITE":"TTMTR","DECAY_DATE":null,"FILE":"2985903","GP_ID":"173646034","TLE_LINE0":"0 ONEWEB-0027","TLE_LINE1":"1 45432U 20020J   21077.48067405 -.00398922  00000-0 -42131+0 0  9998","TLE_LINE2":"2 45432  87.9159  27.3020 0028295  81.8312 278.6061 13.76925463 53804"},{"CCSDS_OMM_VERS":"2.0","COMMENT":"GENERATED VIA SPACE-TRACK.ORG API","CREATION_DATE":"2021-03-19T17:40:37","ORIGINATOR":"18 SPCS","OBJECT_NAME":"ONEWEB-0027","OBJECT_ID":"2020-020J","CENTER_NAME":"EARTH","REF_FRAME":"TEME","TIME_SYSTEM":"UTC","MEAN_ELEMENT_THEORY":"SGP4","EPOCH":"2021-03-19T06:46:28.646400","MEAN_MOTION":"13.74595547","ECCENTRICITY":"0.00282770","INCLINATION":"87.9202","RA_OF_ASC_NODE":"27.1285","ARG_OF_PERICENTER":"77.4635","MEAN_ANOMALY":"282.9689","EPHEMERIS_TYPE":"0","CLASSIFICATION_TYPE":"U","NORAD_CAT_ID":"45432","ELEMENT_SET_NO":"999","REV_AT_EPOCH":"5391","BSTAR":"-0.43881000000000","MEAN_MOTION_DOT":"-0.00399625","MEAN_MOTION_DDOT":"0.0000000000000","SEMIMAJOR_AXIS":"7361.255","PERIOD":"104.758","APOAPSIS":"1003.936","PERIAPSIS":"962.305","OBJECT_TYPE":"PAYLOAD","RCS_SIZE":"MEDIUM","COUNTRY_CODE":"UK","LAUNCH_DATE":"2020-03-21","SITE":"TTMTR","DECAY_DATE":null,"FILE":"2987089","GP_ID":"173712831","TLE_LINE0":"0 ONEWEB-0027","TLE_LINE1":"1 45432U 20020J   21078.28227600 -.00399625  00000-0 -43881+0 0  9996","TLE_LINE2":"2 45432  87.9202  27.1285 0028277  77.4635 282.9689 13.74595547 53913"},{"CCSDS_OMM_VERS":"2.0","COMMENT":"GENERATED VIA SPACE-TRACK.ORG API","CREATION_DATE":"2021-03-19T22:26:13","ORIGINATOR":"18 SPCS","OBJECT_NAME":"ONEWEB-0027","OBJECT_ID":"2020-020J","CENTER_NAME":"EARTH","REF_FRAME":"TEME","TIME_SYSTEM":"UTC","MEAN_ELEMENT_THEORY":"SGP4","EPOCH":"2021-03-19T06:46:28.646400","MEAN_MOTION":"13.74595547","ECCENTRICITY":"0.00282770","INCLINATION":"87.9202","RA_OF_ASC_NODE":"27.1285","ARG_OF_PERICENTER":"77.4635","MEAN_ANOMALY":"282.9689","EPHEMERIS_TYPE":"0","CLASSIFICATION_TYPE":"U","NORAD_CAT_ID":"45432","ELEMENT_SET_NO":"999","REV_AT_EPOCH":"5391","BSTAR":"-0.43881000000000","MEAN_MOTION_DOT":"-0.00399625","MEAN_MOTION_DDOT":"0.0000000000000","SEMIMAJOR_AXIS":"7361.255","PERIOD":"104.758","APOAPSIS":"1003.936","PERIAPSIS":"962.305","OBJECT_TYPE":"PAYLOAD","RCS_SIZE":"MEDIUM","COUNTRY_CODE":"UK","LAUNCH_DATE":"2020-03-21","SITE":"TTMTR","DECAY_DATE":null,"FILE":"2987314","GP_ID":"173720694","TLE_LINE0":"0 ONEWEB-0027","TLE_LINE1":"1 45432U 20020J   21078.28227600 -.00399625  00000-0 -43881+0 0  9996","TLE_LINE2":"2 45432  87.9202  27.1285 0028277  77.4635 282.9689 13.74595547 53913"},{"CCSDS_OMM_VERS":"2.0","COMMENT":"GENERATED VIA SPACE-TRACK.ORG API","CREATION_DATE":"2021-03-20T17:45:19","ORIGINATOR":"18 SPCS","OBJECT_NAME":"ONEWEB-0027","OBJECT_ID":"2020-020J","CENTER_NAME":"EARTH","REF_FRAME":"TEME","TIME_SYSTEM":"UTC","MEAN_ELEMENT_THEORY":"SGP4","EPOCH":"2021-03-20T09:03:15.827328","MEAN_MOTION":"13.71738425","ECCENTRICITY":"0.00277240","INCLINATION":"87.9229","RA_OF_ASC_NODE":"26.8914","ARG_OF_PERICENTER":"78.9329","MEAN_ANOMALY":"281.4949","EPHEMERIS_TYPE":"0","CLASSIFICATION_TYPE":"U","NORAD_CAT_ID":"45432","ELEMENT_SET_NO":"999","REV_AT_EPOCH":"5406","BSTAR":"-0.44398000000000","MEAN_MOTION_DOT":"-0.00386135","MEAN_MOTION_DDOT":"0.0000000000000","SEMIMAJOR_AXIS":"7371.473","PERIOD":"104.976","APOAPSIS":"1013.775","PERIAPSIS":"972.902","OBJECT_TYPE":"PAYLOAD","RCS_SIZE":"MEDIUM","COUNTRY_CODE":"UK","LAUNCH_DATE":"2020-03-21","SITE":"TTMTR","DECAY_DATE":null,"FILE":"2988315","GP_ID":"173786958","TLE_LINE0":"0 ONEWEB-0027","TLE_LINE1":"1 45432U 20020J   21079.37726652 -.00386135  00000-0 -44398+0 0  9994","TLE_LINE2":"2 45432  87.9229  26.8914 0027724  78.9329 281.4949 13.71738425 54060"},{"CCSDS_OMM_VERS":"2.0","COMMENT":"GENERATED VIA SPACE-TRACK.ORG API","CREATION_DATE":"2021-03-20T14:26:13","ORIGINATOR":"18 SPCS","OBJECT_NAME":"ONEWEB-0027","OBJECT_ID":"2020-020J","CENTER_NAME":"EARTH","REF_FRAME":"TEME","TIME_SYSTEM":"UTC","MEAN_ELEMENT_THEORY":"SGP4","EPOCH":"2021-03-20T09:03:15.827328","MEAN_MOTION":"13.71738425","ECCENTRICITY":"0.00277240","INCLINATION":"87.9229","RA_OF_ASC_NODE":"26.8914","ARG_OF_PERICENTER":"78.9329","MEAN_ANOMALY":"281.4949","EPHEMERIS_TYPE":"0","CLASSIFICATION_TYPE":"U","NORAD_CAT_ID":"45432","ELEMENT_SET_NO":"999","REV_AT_EPOCH":"5406","BSTAR":"-0.44398000000000","MEAN_MOTION_DOT":"-0.00386135","MEAN_MOTION_DDOT":"0.0000000000000","SEMIMAJOR_AXIS":"7371.473","PERIOD":"104.976","APOAPSIS":"1013.775","PERIAPSIS":"972.902","OBJECT_TYPE":"PAYLOAD","RCS_SIZE":"MEDIUM","COUNTRY_CODE":"UK","LAUNCH_DATE":"2020-03-21","SITE":"TTMTR","DECAY_DATE":null,"FILE":"2988096","GP_ID":"173760997","TLE_LINE0":"0 ONEWEB-0027","TLE_LINE1":"1 45432U 20020J   21079.37726652 -.00386135  00000-0 -44398+0 0  9994","TLE_LINE2":"2 45432  87.9229  26.8914 0027724  78.9329 281.4949 13.71738425 54060"},{"CCSDS_OMM_VERS":"2.0","COMMENT":"GENERATED VIA SPACE-TRACK.ORG API","CREATION_DATE":"2021-03-22T14:26:13","ORIGINATOR":"18 SPCS","OBJECT_NAME":"ONEWEB-0027","OBJECT_ID":"2020-020J","CENTER_NAME":"EARTH","REF_FRAME":"TEME","TIME_SYSTEM":"UTC","MEAN_ELEMENT_THEORY":"SGP4","EPOCH":"2021-03-22T08:23:15.337248","MEAN_MOTION":"13.69499046","ECCENTRICITY":"0.00288940","INCLINATION":"87.9267","RA_OF_ASC_NODE":"26.4654","ARG_OF_PERICENTER":"74.0797","MEAN_ANOMALY":"286.3545","EPHEMERIS_TYPE":"0","CLASSIFICATION_TYPE":"U","NORAD_CAT_ID":"45432","ELEMENT_SET_NO":"999","REV_AT_EPOCH":"5433","BSTAR":"-0.04701200000000","MEAN_MOTION_DOT":"-0.00040810","MEAN_MOTION_DDOT":"0.0000000000000","SEMIMAJOR_AXIS":"7379.507","PERIOD":"105.148","APOAPSIS":"1022.694","PERIAPSIS":"980.050","OBJECT_TYPE":"PAYLOAD","RCS_SIZE":"MEDIUM","COUNTRY_CODE":"UK","LAUNCH_DATE":"2020-03-21","SITE":"TTMTR","DECAY_DATE":null,"FILE":"2990325","GP_ID":"173900385","TLE_LINE0":"0 ONEWEB-0027","TLE_LINE1":"1 45432U 20020J   21081.34948307 -.00040810  00000-0 -47012-1 0  9992","TLE_LINE2":"2 45432  87.9267  26.4654 0028894  74.0797 286.3545 13.69499046 54330"}]